OBJECT C                
1 57582U 23117C   25169.18232041  .00005997  00000+0  23487-3 0  9991
2 57582  97.4443 244.0885 0010517  94.3946 265.8494 15.26125906102828
